OBJECT_NAME,OBJECT_ID,EPOCH,MEAN_MOTION,ECCENTRICITY,INCLINATION,RA_OF_ASC_NODE,ARG_OF_PERICENTER,MEAN_ANOMALY,EPHEMERIS_TYPE,CLASSIFICATION_TYPE,NORAD_CAT_ID,ELEMENT_SET_NO,REV_AT_EPOCH,BSTAR,MEAN_MOTION_DOT,MEAN_MOTION_DDOT
KUIPER-00522,2026-140L,2026-06-28T22:00:01.999584,15.38202137,.00136621,51.8786,341.8763,203.6349,14.2872,0,U,69602,999,247,.17850964E-2,.68653E-3,0
KUIPER-00528,2026-140M,2026-06-28T19:55:46.156512,15.37073930,.00047682,51.8796,342.4942,297.7825,62.2678,0,U,69603,999,302,.57158463E-3,.20734E-3,0
KUIPER-00532,2026-140N,2026-06-28T20:00:27.389376,15.36546564,.00049629,51.8791,342.5145,330.0510,30.0192,0,U,69604,999,302,.61899962E-3,.22107E-3,0
KUIPER-00533,2026-140P,2026-06-28T21:18:51.205824,15.37999647,.00076199,51.8792,342.1330,258.8766,101.1365,0,U,69605,999,303,.49189593E-3,.18342E-3,0
KUIPER-00534,2026-140Q,2026-06-28T22:00:01.999584,15.38393056,.00138023,51.8816,341.8322,204.0953,35.9106,0,U,69606,999,273,.18213316E-2,.70515E-3,0
KUIPER-00537,2026-140R,2026-06-28T20:07:27.303744,15.35810551,.0008532,51.8829,342.5504,353.9325,6.1557,0,U,69607,999,302,.60418879E-3,.2107E-3,0
KUIPER-00538,2026-140S,2026-06-28T19:52:02.083296,15.37336256,.00056208,51.8815,342.4814,275.2313,84.8033,0,U,69608,999,302,.77287563E-3,.28449E-3,0
KUIPER-00540,2026-140T,2026-06-28T19:58:45.675840,15.36768602,.00057514,51.8827,342.5125,323.1050,36.9540,0,U,69609,999,302,.557948E-3,.2003E-3,0
KUIPER-00541,2026-140U,2026-06-28T19:46:20.169120,15.38000405,.00070068,51.8824,342.4572,255.3347,104.6864,0,U,69610,999,302,.6965824E-3,.26165E-3,0
KUIPER-00542,2026-140V,2026-06-28T19:43:57.759456,15.38066446,.00076461,51.8794,342.4418,235.6636,124.3628,0,U,69611,999,302,.47037584E-3,.17559E-3,0
KUIPER-00543,2026-140W,2026-06-28T20:02:08.165472,15.36450364,.0006927,51.8795,342.5199,338.8810,21.1890,0,U,69612,999,302,.58339825E-3,.20751E-3,0
KUIPER-00544,2026-140X,2026-06-28T21:21:25.187040,15.37824114,.00064717,51.8796,342.1443,254.7665,105.2607,0,U,69613,999,303,.36833857E-3,.13544E-3,0
KUIPER-00546,2026-140Y,2026-06-28T22:00:01.999584,15.38480217,.00150449,51.8786,341.8524,202.3474,27.1384,0,U,69614,999,298,.17562814E-2,.68197E-3,0
KUIPER-00547,2026-140Z,2026-06-28T22:00:01.999584,15.37413452,.00110772,51.8818,341.9184,225.4405,333.2965,0,U,69615,999,130,.18698625E-2,.70043E-3,0
KUIPER-00549,2026-140AA,2026-06-28T19:56:35.320704,15.36994309,.00065128,51.8797,342.4983,316.3773,43.6698,0,U,69616,999,302,.74860449E-3,.27237E-3,0
KUIPER-00550,2026-140AB,2026-06-28T20:10:31.425600,15.35296683,.00063728,51.8803,342.5593,357.6793,2.4162,0,U,69617,999,302,.64757169E-3,.22231E-3,0
KUIPER-00551,2026-140AC,2026-06-28T22:00:01.999584,15.37873866,.00127305,51.8785,341.8724,216.2509,3.4057,0,U,69618,999,141,.18632873E-2,.70904E-3,0
KUIPER-00554,2026-140AD,2026-06-28T22:00:01.999584,15.37541677,.00114166,51.8785,341.9052,225.7465,337.6477,0,U,69619,999,270,.18671406E-2,.70244E-3,0
KUIPER-00555,2026-140AE,2026-06-28T21:04:49.471104,15.37971113,.00120086,51.8820,342.0734,218.8851,141.1273,0,U,69620,999,303,-.36692105E-2,-.137497E-2,0
KUIPER-00556,2026-140AF,2026-06-28T22:00:01.999584,15.37894856,.00123406,51.8805,341.9050,204.7684,359.4219,0,U,69621,999,270,.17784148E-2,.67663E-3,0
KUIPER-00557,2026-140AG,2026-06-28T21:10:19.161408,15.38814614,.00105659,51.8815,342.0975,230.4302,129.5753,0,U,69622,999,303,.41749184E-3,.1594E-3,0
KUIPER-00560,2026-140AH,2026-06-28T19:40:53.896800,15.38491530,.00088299,51.8792,342.4284,238.7795,121.2327,0,U,69623,999,302,.99027499E-3,.38048E-3,0
KUIPER-00561,2026-140AJ,2026-06-28T19:42:25.451424,15.38279875,.00080351,51.8830,342.4396,240.3328,119.6860,0,U,69624,999,302,.71147827E-3,.26989E-3,0
KUIPER-00564,2026-140AK,2026-06-28T21:12:48.494304,15.38605995,.00095152,51.8813,342.1087,229.0812,130.9352,0,U,69625,999,303,.39221126E-3,.1484E-3,0
KUIPER-00567,2026-140AL,2026-06-28T22:00:01.999584,15.38102640,.00130479,51.8774,341.8879,207.1397,4.6018,0,U,69626,999,301,.1756967E-2,.67315E-3,0
KUIPER-00573,2026-140AM,2026-06-28T22:00:01.999584,15.37229372,.00097045,51.8784,341.9579,220.7960,316.6272,0,U,69627,999,295,.1798779E-2,.66906E-3,0
