[
  {
    "name": "KUIPER-00522",
    "noradId": "69602",
    "line1": "1 69602U 26140L   26179.91668981  .00068653  00000+0  17851-2 0  9990",
    "line2": "2 69602  51.8786 341.8763 0013662 203.6349  14.2872 15.38202137  2476"
  },
  {
    "name": "KUIPER-00528",
    "noradId": "69603",
    "line1": "1 69603U 26140M   26179.83039533  .00020734  00000+0  57158-3 0  9990",
    "line2": "2 69603  51.8796 342.4942 0004768 297.7825  62.2678 15.37073930  3029"
  },
  {
    "name": "KUIPER-00532",
    "noradId": "69604",
    "line1": "1 69604U 26140N   26179.83365034  .00022107  00000+0  61900-3 0  9995",
    "line2": "2 69604  51.8791 342.5145 0004962 330.0510  30.0192 15.36546564  3020"
  },
  {
    "name": "KUIPER-00533",
    "noradId": "69605",
    "line1": "1 69605U 26140P   26179.88809266  .00018342  00000+0  49190-3 0  9994",
    "line2": "2 69605  51.8792 342.1330 0007619 258.8766 101.1365 15.37999647  3034"
  },
  {
    "name": "KUIPER-00534",
    "noradId": "69606",
    "line1": "1 69606U 26140Q   26179.91668981  .00070515  00000+0  18213-2 0  9997",
    "line2": "2 69606  51.8816 341.8322 0013802 204.0953  35.9106 15.38393056  2737"
  },
  {
    "name": "KUIPER-00537",
    "noradId": "69607",
    "line1": "1 69607U 26140R   26179.83851046  .00021070  00000+0  60419-3 0  9993",
    "line2": "2 69607  51.8829 342.5504 0008532 353.9325   6.1557 15.35810551  3027"
  },
  {
    "name": "KUIPER-00538",
    "noradId": "69608",
    "line1": "1 69608U 26140S   26179.82780189  .00028449  00000+0  77288-3 0  9991",
    "line2": "2 69608  51.8815 342.4814 0005620 275.2313  84.8033 15.37336256  3023"
  },
  {
    "name": "KUIPER-00540",
    "noradId": "69609",
    "line1": "1 69609U 26140T   26179.83247310  .00020030  00000+0  55795-3 0  9994",
    "line2": "2 69609  51.8827 342.5125 0005751 323.1050  36.9540 15.36768602  3023"
  },
  {
    "name": "KUIPER-00541",
    "noradId": "69610",
    "line1": "1 69610U 26140U   26179.82384455  .00026165  00000+0  69658-3 0  9995",
    "line2": "2 69610  51.8824 342.4572 0007006 255.3347 104.6864 15.38000405  3021"
  },
  {
    "name": "KUIPER-00542",
    "noradId": "69611",
    "line1": "1 69611U 26140V   26179.82219629  .00017559  00000+0  47038-3 0  9991",
    "line2": "2 69611  51.8794 342.4418 0007646 235.6636 124.3628 15.38066446  3023"
  },
  {
    "name": "KUIPER-00543",
    "noradId": "69612",
    "line1": "1 69612U 26140W   26179.83481673  .00020751  00000+0  58340-3 0  9999",
    "line2": "2 69612  51.8795 342.5199 0006927 338.8810  21.1890 15.36450364  3022"
  },
  {
    "name": "KUIPER-00544",
    "noradId": "69613",
    "line1": "1 69613U 26140X   26179.88987485  .00013544  00000+0  36834-3 0  9993",
    "line2": "2 69613  51.8796 342.1443 0006471 254.7665 105.2607 15.37824114  3030"
  },
  {
    "name": "KUIPER-00546",
    "noradId": "69614",
    "line1": "1 69614U 26140Y   26179.91668981  .00068197  00000+0  17563-2 0  9996",
    "line2": "2 69614  51.8786 341.8524 0015044 202.3474  27.1384 15.38480217  2989"
  },
  {
    "name": "KUIPER-00547",
    "noradId": "69615",
    "line1": "1 69615U 26140Z   26179.91668981  .00070043  00000+0  18699-2 0  9991",
    "line2": "2 69615  51.8818 341.9184 0011077 225.4405 333.2965 15.37413452  1308"
  },
  {
    "name": "KUIPER-00549",
    "noradId": "69616",
    "line1": "1 69616U 26140AA  26179.83096436  .00027237  00000+0  74860-3 0  9993",
    "line2": "2 69616  51.8797 342.4983 0006512 316.3773  43.6698 15.36994309  3024"
  },
  {
    "name": "KUIPER-00550",
    "noradId": "69617",
    "line1": "1 69617U 26140AB  26179.84064150  .00022231  00000+0  64757-3 0  9996",
    "line2": "2 69617  51.8803 342.5593 0006372 357.6793   2.4162 15.35296683  3023"
  },
  {
    "name": "KUIPER-00551",
    "noradId": "69618",
    "line1": "1 69618U 26140AC  26179.91668981  .00070904  00000+0  18633-2 0  9998",
    "line2": "2 69618  51.8785 341.8724 0012730 216.2509   3.4057 15.37873866  1412"
  },
  {
    "name": "KUIPER-00554",
    "noradId": "69619",
    "line1": "1 69619U 26140AD  26179.91668981  .00070244  00000+0  18671-2 0  9998",
    "line2": "2 69619  51.8785 341.9052 0011416 225.7465 337.6477 15.37541677  2707"
  },
  {
    "name": "KUIPER-00555",
    "noradId": "69620",
    "line1": "1 69620U 26140AE  26179.87835036 -.00137497  00000+0 -36692-2 0  9991",
    "line2": "2 69620  51.8820 342.0734 0012008 218.8851 141.1273 15.37971113  3039"
  },
  {
    "name": "KUIPER-00556",
    "noradId": "69621",
    "line1": "1 69621U 26140AF  26179.91668981  .00067663  00000+0  17784-2 0  9996",
    "line2": "2 69621  51.8805 341.9050 0012340 204.7684 359.4219 15.37894856  2704"
  },
  {
    "name": "KUIPER-00557",
    "noradId": "69622",
    "line1": "1 69622U 26140AG  26179.88216622  .00015940  00000+0  41749-3 0  9994",
    "line2": "2 69622  51.8815 342.0975 0010565 230.4302 129.5753 15.38814614  3035"
  },
  {
    "name": "KUIPER-00560",
    "noradId": "69623",
    "line1": "1 69623U 26140AH  26179.82006825  .00038048  00000+0  99027-3 0  9997",
    "line2": "2 69623  51.8792 342.4284 0008829 238.7795 121.2327 15.38491530  3027"
  },
  {
    "name": "KUIPER-00561",
    "noradId": "69624",
    "line1": "1 69624U 26140AJ  26179.82112791  .00026989  00000+0  71148-3 0  9993",
    "line2": "2 69624  51.8830 342.4396 0008035 240.3328 119.6860 15.38279875  3024"
  },
  {
    "name": "KUIPER-00564",
    "noradId": "69625",
    "line1": "1 69625U 26140AK  26179.88389461  .00014840  00000+0  39221-3 0  9999",
    "line2": "2 69625  51.8813 342.1087 0009515 229.0812 130.9352 15.38605995  3035"
  },
  {
    "name": "KUIPER-00567",
    "noradId": "69626",
    "line1": "1 69626U 26140AL  26179.91668981  .00067315  00000+0  17570-2 0  9998",
    "line2": "2 69626  51.8774 341.8879 0013047 207.1397   4.6018 15.38102640  3010"
  },
  {
    "name": "KUIPER-00573",
    "noradId": "69627",
    "line1": "1 69627U 26140AM  26179.91668981  .00066906  00000+0  17988-2 0  9997",
    "line2": "2 69627  51.8784 341.9579 0009704 220.7960 316.6272 15.37229372  2953"
  }
]